{
  "type": "FeatureCollection",
  "features": [
    {
      "type": "Feature",
      "properties": {
        "norad_id": 66525,
        "name": "STARLINK-35975",
        "group": "last-30-days",
        "lat": 41.49361486725778,
        "lon": 156.746768095062,
        "alt_km": 429.74158671606165,
        "timestamp": "2025-12-13T16:48:31.464801+00:00",
        "meta_object_name": "STARLINK-35975",
        "meta_object_id": "2025-265K",
        "meta_epoch": "2025-12-12T20:00:01.999872",
        "meta_mean_motion": 15.47583135,
        "meta_eccentricity": 0.00013712,
        "meta_inclination": 43.0004,
        "meta_ra_of_asc_node": 53.4398,
        "meta_arg_of_pericenter": 267.9756,
        "meta_mean_anomaly": 45.6123,
        "meta_ephemeris_type": 0,
        "meta_classification_type": "U",
        "meta_norad_cat_id": 66525,
        "meta_element_set_no": 999,
        "meta_rev_at_epoch": 500,
        "meta_bstar": -0.044614728,
        "meta_mean_motion_dot": -0.02090476,
        "meta_mean_motion_ddot": 0,
        "tle_line1": "1 66525U 25265K   25346.83335648 -.02090476  00000+0 -44615-1 0  9994",
        "tle_line2": "2 66525  43.0004  53.4398 0001371 267.9756  45.6123 15.47583135  5001"
      },
      "geometry": {
        "type": "Point",
        "coordinates": [
          156.746768095062,
          41.49361486725778
        ]
      }
    },
    {
      "type": "Feature",
      "properties": {
        "norad_id": 66526,
        "name": "STARLINK-35932",
        "group": "last-30-days",
        "lat": 34.21194879482109,
        "lon": -178.5009758192588,
        "alt_km": 410.54324377584726,
        "timestamp": "2025-12-13T16:48:31.464811+00:00",
        "meta_object_name": "STARLINK-35932",
        "meta_object_id": "2025-265L",
        "meta_epoch": "2025-12-12T20:00:01.999872",
        "meta_mean_motion": 15.50759656,
        "meta_eccentricity": 0.00013488,
        "meta_inclination": 43.0004,
        "meta_ra_of_asc_node": 53.4257,
        "meta_arg_of_pericenter": 221.7863,
        "meta_mean_anomaly": 97.2428,
        "meta_ephemeris_type": 0,
        "meta_classification_type": "U",
        "meta_norad_cat_id": 66526,
        "meta_element_set_no": 999,
        "meta_rev_at_epoch": 490,
        "meta_bstar": -0.0043728908,
        "meta_mean_motion_dot": -0.00250453,
        "meta_mean_motion_ddot": 0,
        "tle_line1": "1 66526U 25265L   25346.83335648 -.00250453  00000+0 -43729-2 0  9992",
        "tle_line2": "2 66526  43.0004  53.4257 0001348 221.7863  97.2428 15.50759656  4903"
      },
      "geometry": {
        "type": "Point",
        "coordinates": [
          -178.5009758192588,
          34.21194879482109
        ]
      }
    },
    {
      "type": "Feature",
      "properties": {
        "norad_id": 66527,
        "name": "STARLINK-35935",
        "group": "last-30-days",
        "lat": 33.30586399257444,
        "lon": -176.4852127368857,
        "alt_km": 411.3055477297221,
        "timestamp": "2025-12-13T16:48:31.464820+00:00",
        "meta_object_name": "STARLINK-35935",
        "meta_object_id": "2025-265M",
        "meta_epoch": "2025-12-12T20:00:01.999872",
        "meta_mean_motion": 15.50707214,
        "meta_eccentricity": 0.00014094,
        "meta_inclination": 43.0004,
        "meta_ra_of_asc_node": 53.4216,
        "meta_arg_of_pericenter": 262.0417,
        "meta_mean_anomaly": 58.9844,
        "meta_ephemeris_type": 0,
        "meta_classification_type": "U",
        "meta_norad_cat_id": 66527,
        "meta_element_set_no": 999,
        "meta_rev_at_epoch": 501,
        "meta_bstar": -0.00395494,
        "meta_mean_motion_dot": -0.00226802,
        "meta_mean_motion_ddot": 0,
        "tle_line1": "1 66527U 25265M   25346.83335648 -.00226802  00000+0 -39549-2 0  9999",
        "tle_line2": "2 66527  43.0004  53.4216 0001409 262.0417  58.9844 15.50707214  5012"
      },
      "geometry": {
        "type": "Point",
        "coordinates": [
          -176.4852127368857,
          33.30586399257444
        ]
      }
    },
    {
      "type": "Feature",
      "properties": {
        "norad_id": 66528,
        "name": "STARLINK-35928",
        "group": "last-30-days",
        "lat": 32.35320046223853,
        "lon": -174.4831274467391,
        "alt_km": 411.559016620703,
        "timestamp": "2025-12-13T16:48:31.464831+00:00",
        "meta_object_name": "STARLINK-35928",
        "meta_object_id": "2025-265N",
        "meta_epoch": "2025-12-12T20:00:01.999872",
        "meta_mean_motion": 15.50686611,
        "meta_eccentricity": 0.00016072,
        "meta_inclination": 43.0006,
        "meta_ra_of_asc_node": 53.416,
        "meta_arg_of_pericenter": 268.4489,
        "meta_mean_anomaly": 54.5139,
        "meta_ephemeris_type": 0,
        "meta_classification_type": "U",
        "meta_norad_cat_id": 66528,
        "meta_element_set_no": 999,
        "meta_rev_at_epoch": 501,
        "meta_bstar": -0.0035590779,
        "meta_mean_motion_dot": -0.00204563,
        "meta_mean_motion_ddot": 0,
        "tle_line1": "1 66528U 25265N   25346.83335648 -.00204563  00000+0 -35591-2 0  9993",
        "tle_line2": "2 66528  43.0006  53.4160 0001607 268.4489  54.5139 15.50686611  5018"
      },
      "geometry": {
        "type": "Point",
        "coordinates": [
          -174.4831274467391,
          32.35320046223853
        ]
      }
    },
    {
      "type": "Feature",
      "properties": {
        "norad_id": 66529,
        "name": "STARLINK-35933",
        "group": "last-30-days",
        "lat": 39.28026782482526,
        "lon": 109.85821181252528,
        "alt_km": 443.00556553073784,
        "timestamp": "2025-12-13T16:48:31.464841+00:00",
        "meta_object_name": "STARLINK-35933",
        "meta_object_id": "2025-265P",
        "meta_epoch": "2025-12-12T20:00:01.999872",
        "meta_mean_motion": 15.41626386,
        "meta_eccentricity": 0.00014685,
        "meta_inclination": 43.0004,
        "meta_ra_of_asc_node": 53.485,
        "meta_arg_of_pericenter": 283.8817,
        "meta_mean_anomaly": 10.6861,
        "meta_ephemeris_type": 0,
        "meta_classification_type": "U",
        "meta_norad_cat_id": 66529,
        "meta_element_set_no": 999,
        "meta_rev_at_epoch": 501,
        "meta_bstar": -0.033557012,
        "meta_mean_motion_dot": -0.01303186,
        "meta_mean_motion_ddot": 0,
        "tle_line1": "1 66529U 25265P   25346.83335648 -.01303186  00000+0 -33557-1 0  9995",
        "tle_line2": "2 66529  43.0004  53.4850 0001468 283.8817  10.6861 15.41626386  5012"
      },
      "geometry": {
        "type": "Point",
        "coordinates": [
          109.85821181252528,
          39.28026782482526
        ]
      }
    },
    {
      "type": "Feature",
      "properties": {
        "norad_id": 66530,
        "name": "STARLINK-35961",
        "group": "last-30-days",
        "lat": 42.804774382240325,
        "lon": 144.7724041628647,
        "alt_km": 437.63118032270904,
        "timestamp": "2025-12-13T16:48:31.464853+00:00",
        "meta_object_name": "STARLINK-35961",
        "meta_object_id": "2025-265Q",
        "meta_epoch": "2025-12-12T20:00:01.999872",
        "meta_mean_motion": 15.44782538,
        "meta_eccentricity": 0.00013051,
        "meta_inclination": 43.0006,
        "meta_ra_of_asc_node": 53.4403,
        "meta_arg_of_pericenter": 271.6851,
        "meta_mean_anomaly": 41.6419,
        "meta_ephemeris_type": 0,
        "meta_classification_type": "U",
        "meta_norad_cat_id": 66530,
        "meta_element_set_no": 999,
        "meta_rev_at_epoch": 501,
        "meta_bstar": -0.04866655,
        "meta_mean_motion_dot": -0.02070839,
        "meta_mean_motion_ddot": 0,
        "tle_line1": "1 66530U 25265Q   25346.83335648 -.02070839  00000+0 -48667-1 0  9992",
        "tle_line2": "2 66530  43.0006  53.4403 0001305 271.6851  41.6419 15.44782538  5011"
      },
      "geometry": {
        "type": "Point",
        "coordinates": [
          144.7724041628647,
          42.804774382240325
        ]
      }
    },
    {
      "type": "Feature",
      "properties": {
        "norad_id": 66531,
        "name": "STARLINK-35960",
        "group": "last-30-days",
        "lat": 37.86524784275324,
        "lon": 171.82624798004576,
        "alt_km": 429.9845253014382,
        "timestamp": "2025-12-13T16:48:31.464865+00:00",
        "meta_object_name": "STARLINK-35960",
        "meta_object_id": "2025-265R",
        "meta_epoch": "2025-12-12T20:00:01.999872",
        "meta_mean_motion": 15.47697598,
        "meta_eccentricity": 0.00014284,
        "meta_inclination": 43.0006,
        "meta_ra_of_asc_node": 53.4092,
        "meta_arg_of_pericenter": 274.4131,
        "meta_mean_anomaly": 50.9624,
        "meta_ephemeris_type": 0,
        "meta_classification_type": "U",
        "meta_norad_cat_id": 66531,
        "meta_element_set_no": 999,
        "meta_rev_at_epoch": 501,
        "meta_bstar": -0.04440985,
        "meta_mean_motion_dot": -0.02089446,
        "meta_mean_motion_ddot": 0,
        "tle_line1": "1 66531U 25265R   25346.83335648 -.02089446  00000+0 -44410-1 0  9999",
        "tle_line2": "2 66531  43.0006  53.4092 0001428 274.4131  50.9624 15.47697598  5019"
      },
      "geometry": {
        "type": "Point",
        "coordinates": [
          171.82624798004576,
          37.86524784275324
        ]
      }
    }
  ]
}